[{"OBJECT_NAME":"COSMOS 1953","OBJECT_ID":"1988-050A","EPOCH":"2026-03-03T17:36:20.455776","MEAN_MOTION":15.28394735,"ECCENTRICITY":0.00121974,"INCLINATION":82.5118,"RA_OF_ASC_NODE":164.2355,"ARG_OF_PERICENTER":141.907,"MEAN_ANOMALY":218.3034,"EPHEMERIS_TYPE":0,"CLASSIFICATION_TYPE":"U","NORAD_CAT_ID":19210,"ELEMENT_SET_NO":999,"REV_AT_EPOCH":3687,"BSTAR":0.00040539309,"MEAN_MOTION_DOT":0.00011265,"MEAN_MOTION_DDOT":0},{"OBJECT_NAME":"SL-8 R/B","OBJECT_ID":"1988-053B","EPOCH":"2026-03-03T14:49:23.928384","MEAN_MOTION":14.38911518,"ECCENTRICITY":0.002129,"INCLINATION":74.0469,"RA_OF_ASC_NODE":123.6591,"ARG_OF_PERICENTER":303.8485,"MEAN_ANOMALY":168.0525,"EPHEMERIS_TYPE":0,"CLASSIFICATION_TYPE":"U","NORAD_CAT_ID":19257,"ELEMENT_SET_NO":999,"REV_AT_EPOCH":97572,"BSTAR":0.00011675,"MEAN_MOTION_DOT":3.34e-6,"MEAN_MOTION_DDOT":0},{"OBJECT_NAME":"COSMOS 1975","OBJECT_ID":"1988-093A","EPOCH":"2026-03-03T15:13:47.495136","MEAN_MOTION":15.27960127,"ECCENTRICITY":0.0011617,"INCLINATION":82.5198,"RA_OF_ASC_NODE":123.7633,"ARG_OF_PERICENTER":184.2896,"MEAN_ANOMALY":175.8246,"EPHEMERIS_TYPE":0,"CLASSIFICATION_TYPE":"U","NORAD_CAT_ID":19573,"ELEMENT_SET_NO":999,"REV_AT_EPOCH":1848,"BSTAR":0.00037065,"MEAN_MOTION_DOT":0.00010163,"MEAN_MOTION_DDOT":0},{"OBJECT_NAME":"SL-14 R/B","OBJECT_ID":"1988-093B","EPOCH":"2026-03-03T11:26:45.133728","MEAN_MOTION":14.85647444,"ECCENTRICITY":0.00221173,"INCLINATION":82.5293,"RA_OF_ASC_NODE":47.8765,"ARG_OF_PERICENTER":60.9018,"MEAN_ANOMALY":59.3481,"EPHEMERIS_TYPE":0,"CLASSIFICATION_TYPE":"U","NORAD_CAT_ID":19574,"ELEMENT_SET_NO":999,"REV_AT_EPOCH":9,"BSTAR":8.365477e-5,"MEAN_MOTION_DOT":7.52e-6,"MEAN_MOTION_DDOT":0},{"OBJECT_NAME":"SL-16 R/B","OBJECT_ID":"1988-102B","EPOCH":"2026-03-03T16:32:13.729056","MEAN_MOTION":14.16149412,"ECCENTRICITY":0.00135794,"INCLINATION":71,"RA_OF_ASC_NODE":164.1221,"ARG_OF_PERICENTER":10.7276,"MEAN_ANOMALY":349.4134,"EPHEMERIS_TYPE":0,"CLASSIFICATION_TYPE":"U","NORAD_CAT_ID":19650,"ELEMENT_SET_NO":999,"REV_AT_EPOCH":92604,"BSTAR":1.6651895e-5,"MEAN_MOTION_DOT":-1.5e-7,"MEAN_MOTION_DDOT":0},{"OBJECT_NAME":"INTERCOSMOS 24","OBJECT_ID":"1989-080A","EPOCH":"2026-03-03T14:34:13.100448","MEAN_MOTION":12.59546815,"ECCENTRICITY":0.1186833,"INCLINATION":82.6033,"RA_OF_ASC_NODE":108.3653,"ARG_OF_PERICENTER":306.9522,"MEAN_ANOMALY":42.8481,"EPHEMERIS_TYPE":0,"CLASSIFICATION_TYPE":"U","NORAD_CAT_ID":20261,"ELEMENT_SET_NO":999,"REV_AT_EPOCH":66603,"BSTAR":0.00024957,"MEAN_MOTION_DOT":8.4e-6,"MEAN_MOTION_DDOT":0},{"OBJECT_NAME":"SL-14 R/B","OBJECT_ID":"1989-080C","EPOCH":"2026-03-03T19:03:55.156896","MEAN_MOTION":12.50484949,"ECCENTRICITY":0.12303438,"INCLINATION":82.5972,"RA_OF_ASC_NODE":176.9696,"ARG_OF_PERICENTER":198.2211,"MEAN_ANOMALY":157.0827,"EPHEMERIS_TYPE":0,"CLASSIFICATION_TYPE":"U","NORAD_CAT_ID":20262,"ELEMENT_SET_NO":999,"REV_AT_EPOCH":65941,"BSTAR":0.00024627538,"MEAN_MOTION_DOT":8.27e-6,"MEAN_MOTION_DDOT":0},{"OBJECT_NAME":"DELTA 1 R/B","OBJECT_ID":"1989-089B","EPOCH":"2026-03-03T13:13:19.932096","MEAN_MOTION":14.50657398,"ECCENTRICITY":0.007009,"INCLINATION":97.0709,"RA_OF_ASC_NODE":270.9659,"ARG_OF_PERICENTER":141.0935,"MEAN_ANOMALY":219.5338,"EPHEMERIS_TYPE":0,"CLASSIFICATION_TYPE":"U","NORAD_CAT_ID":20323,"ELEMENT_SET_NO":999,"REV_AT_EPOCH":89484,"BSTAR":0.0001278,"MEAN_MOTION_DOT":4.83e-6,"MEAN_MOTION_DDOT":0},{"OBJECT_NAME":"ARIANE 40 R/B","OBJECT_ID":"1990-005H","EPOCH":"2026-03-03T18:25:37.530336","MEAN_MOTION":14.39865966,"ECCENTRICITY":0.00094836,"INCLINATION":98.3096,"RA_OF_ASC_NODE":123.6054,"ARG_OF_PERICENTER":216.9234,"MEAN_ANOMALY":143.1303,"EPHEMERIS_TYPE":0,"CLASSIFICATION_TYPE":"U","NORAD_CAT_ID":20443,"ELEMENT_SET_NO":999,"REV_AT_EPOCH":89195,"BSTAR":0.00013247432,"MEAN_MOTION_DOT":3.74e-6,"MEAN_MOTION_DDOT":0},{"OBJECT_NAME":"DELTA 2 R/B(1)","OBJECT_ID":"1990-008B","EPOCH":"2026-03-03T18:58:58.796256","MEAN_MOTION":15.55064062,"ECCENTRICITY":0.00867687,"INCLINATION":35.6039,"RA_OF_ASC_NODE":213.5409,"ARG_OF_PERICENTER":204.1361,"MEAN_ANOMALY":155.5295,"EPHEMERIS_TYPE":0,"CLASSIFICATION_TYPE":"U","NORAD_CAT_ID":20453,"ELEMENT_SET_NO":999,"REV_AT_EPOCH":92521,"BSTAR":0.0010723827,"MEAN_MOTION_DOT":0.00089154,"MEAN_MOTION_DDOT":0},{"OBJECT_NAME":"COSMOS 2058","OBJECT_ID":"1990-010A","EPOCH":"2026-03-03T22:53:49.831008","MEAN_MOTION":15.1125933,"ECCENTRICITY":0.00097901,"INCLINATION":82.4666,"RA_OF_ASC_NODE":53.0784,"ARG_OF_PERICENTER":2.3811,"MEAN_ANOMALY":357.7464,"EPHEMERIS_TYPE":0,"CLASSIFICATION_TYPE":"U","NORAD_CAT_ID":20465,"ELEMENT_SET_NO":999,"REV_AT_EPOCH":94137,"BSTAR":0.00035115262,"MEAN_MOTION_DOT":5.939e-5,"MEAN_MOTION_DDOT":0},{"OBJECT_NAME":"SL-14 R/B","OBJECT_ID":"1990-010B","EPOCH":"2026-03-03T16:25:09.945696","MEAN_MOTION":14.8356287,"ECCENTRICITY":0.00189185,"INCLINATION":82.4992,"RA_OF_ASC_NODE":273.0315,"ARG_OF_PERICENTER":323.3212,"MEAN_ANOMALY":36.6707,"EPHEMERIS_TYPE":0,"CLASSIFICATION_TYPE":"U","NORAD_CAT_ID":20466,"ELEMENT_SET_NO":999,"REV_AT_EPOCH":92759,"BSTAR":6.0143721e-5,"MEAN_MOTION_DOT":5.2e-6,"MEAN_MOTION_DDOT":0},{"OBJECT_NAME":"SL-14 R/B","OBJECT_ID":"1990-018B","EPOCH":"2026-03-03T21:34:11.281152","MEAN_MOTION":14.82137586,"ECCENTRICITY":0.00175908,"INCLINATION":82.5192,"RA_OF_ASC_NODE":228.5027,"ARG_OF_PERICENTER":109.6435,"MEAN_ANOMALY":250.6679,"EPHEMERIS_TYPE":0,"CLASSIFICATION_TYPE":"U","NORAD_CAT_ID":20511,"ELEMENT_SET_NO":999,"REV_AT_EPOCH":92172,"BSTAR":8.8552765e-5,"MEAN_MOTION_DOT":7.3e-6,"MEAN_MOTION_DDOT":0},{"OBJECT_NAME":"HST","OBJECT_ID":"1990-037B","EPOCH":"2026-03-03T10:01:15.222720","MEAN_MOTION":15.29363841,"ECCENTRICITY":0.00016951,"INCLINATION":28.4702,"RA_OF_ASC_NODE":82.7831,"ARG_OF_PERICENTER":63.3001,"MEAN_ANOMALY":296.7768,"EPHEMERIS_TYPE":0,"CLASSIFICATION_TYPE":"U","NORAD_CAT_ID":20580,"ELEMENT_SET_NO":999,"REV_AT_EPOCH":77235,"BSTAR":0.00029940291,"MEAN_MOTION_DOT":9.009e-5,"MEAN_MOTION_DDOT":0},{"OBJECT_NAME":"SL-16 R/B","OBJECT_ID":"1990-046B","EPOCH":"2026-03-03T19:54:52.463232","MEAN_MOTION":14.15014535,"ECCENTRICITY":0.00161462,"INCLINATION":71.0001,"RA_OF_ASC_NODE":310.2216,"ARG_OF_PERICENTER":307.4734,"MEAN_ANOMALY":52.4919,"EPHEMERIS_TYPE":0,"CLASSIFICATION_TYPE":"U","NORAD_CAT_ID":20625,"ELEMENT_SET_NO":999,"REV_AT_EPOCH":84756,"BSTAR":-7.0231982e-5,"MEAN_MOTION_DOT":-1.84e-6,"MEAN_MOTION_DDOT":0},{"OBJECT_NAME":"COSMOS 2084","OBJECT_ID":"1990-055A","EPOCH":"2026-03-03T19:27:49.873824","MEAN_MOTION":15.05607622,"ECCENTRICITY":0.00180316,"INCLINATION":62.7926,"RA_OF_ASC_NODE":355.6267,"ARG_OF_PERICENTER":188.7251,"MEAN_ANOMALY":171.3539,"EPHEMERIS_TYPE":0,"CLASSIFICATION_TYPE":"U","NORAD_CAT_ID":20663,"ELEMENT_SET_NO":999,"REV_AT_EPOCH":93543,"BSTAR":0.00029075235,"MEAN_MOTION_DOT":4.028e-5,"MEAN_MOTION_DDOT":0},{"OBJECT_NAME":"SL-6 R/B(2)","OBJECT_ID":"1990-055D","EPOCH":"2026-03-03T18:51:16.596864","MEAN_MOTION":15.03560947,"ECCENTRICITY":0.00238421,"INCLINATION":62.7819,"RA_OF_ASC_NODE":273.9292,"ARG_OF_PERICENTER":345.5629,"MEAN_ANOMALY":14.4786,"EPHEMERIS_TYPE":0,"CLASSIFICATION_TYPE":"U","NORAD_CAT_ID":20666,"ELEMENT_SET_NO":999,"REV_AT_EPOCH":93730,"BSTAR":0.00020860006,"MEAN_MOTION_DOT":2.679e-5,"MEAN_MOTION_DDOT":0}]
